LMRST-SAT               
1 40971U 15058H   26068.72417700  .00004653  00000+0  42420-3 0  9992
2 40971  64.7755 224.0879 0131013  97.8444 263.7563 14.89988841 98733
STARLINK-4684           
1 53595U 22104H   26068.74918587  .00000139  00000+0  26831-4 0  9993
2 53595  53.2166 243.8654 0001316  93.7758 266.3384 15.08843486195952
