[{"OBJECT_NAME":"LMRST-SAT","OBJECT_ID":"2015-058H","EPOCH":"2026-03-09T17:22:48.893664","MEAN_MOTION":14.89988841,"ECCENTRICITY":0.01310128,"INCLINATION":64.7755,"RA_OF_ASC_NODE":224.0879,"ARG_OF_PERICENTER":97.8444,"MEAN_ANOMALY":263.7563,"EPHEMERIS_TYPE":0,"CLASSIFICATION_TYPE":"U","NORAD_CAT_ID":40971,"ELEMENT_SET_NO":999,"REV_AT_EPOCH":9873,"BSTAR":0.00042420191,"MEAN_MOTION_DOT":4.653e-5,"MEAN_MOTION_DDOT":0},{"OBJECT_NAME":"STARLINK-4684","OBJECT_ID":"2022-104H","EPOCH":"2026-03-09T17:58:49.659168","MEAN_MOTION":15.08843486,"ECCENTRICITY":0.00013157,"INCLINATION":53.2166,"RA_OF_ASC_NODE":243.8654,"ARG_OF_PERICENTER":93.7758,"MEAN_ANOMALY":266.3384,"EPHEMERIS_TYPE":0,"CLASSIFICATION_TYPE":"U","NORAD_CAT_ID":53595,"ELEMENT_SET_NO":999,"REV_AT_EPOCH":19595,"BSTAR":2.683072e-5,"MEAN_MOTION_DOT":1.39e-6,"MEAN_MOTION_DDOT":0}]
